{
  "norad_id": 48116,
  "name": "STARLINK-2454",
  "history": [
    {
      "epoch": "2026-03-28T09:13:07.904064Z",
      "apogee_km": 476.0167212055503,
      "perigee_km": 474.39713896799276,
      "latitude_deg": -1.2829333973414008e-06,
      "longitude_deg": 114.34312449995811,
      "height_km": 476.24853713858926,
      "semi_major_axis_km": 6853.343930086771,
      "eccentricity": 0.00011816,
      "inclination_deg": 53.1597,
      "raan_deg": 78.4314,
      "arg_perigee_deg": 100.2013,
      "mean_anomaly_deg": 259.9121,
      "mean_motion_rev_day": 15.30202726
    },
    {
      "epoch": "2026-03-29T05:35:48.501600Z",
      "apogee_km": 475.9427083307846,
      "perigee_km": 474.30477901304675,
      "latitude_deg": -4.31317549059676e-06,
      "longitude_deg": 163.89277330822372,
      "height_km": 476.210291991598,
      "semi_major_axis_km": 6853.260743671915,
      "eccentricity": 0.0001195,
      "inclination_deg": 53.1602,
      "raan_deg": 74.4871,
      "arg_perigee_deg": 103.2924,
      "mean_anomaly_deg": 256.821,
      "mean_motion_rev_day": 15.30230587
    }
  ]
}